#aV2010  1 24  0  0   .00000000      96 DD+AD WGS84 FIT  NGA
## 1568       .00000000   900.00000000 55220  .0000000000000
+   32     1  2  3  4  5  6  7  8  9 10 11 12 13 14 15 16 17
+         18 19 20 21 22 23 24 25 26 27 28 29 30 31 32  0  0
+          0  0  0  0  0  0  0  0  0  0  0  0  0  0  0  0  0
+          0  0  0  0  0  0  0  0  0  0  0  0  0  0  0  0  0
+          0  0  0  0  0  0  0  0  0  0  0  0  0  0  0  0  0
++         0  0  0  0  0  0  0  0  0  0  0  0  0  0  0  0  0
++         0  0  0  0  0  0  0  0  0  0  0  0  0  0  0  0  0
++         0  0  0  0  0  0  0  0  0  0  0  0  0  0  0  0  0
++         0  0  0  0  0  0  0  0  0  0  0  0  0  0  0  0  0
++         0  0  0  0  0  0  0  0  0  0  0  0  0  0  0  0  0
%c cc cc ccc ccc cccc cccc cccc cccc ccccc ccccc ccccc ccccc
%c cc cc ccc ccc cccc cccc cccc cccc ccccc ccccc ccccc ccccc
%f  0.0000000  0.000000000  0.00000000000  0.000000000000000
%f  0.0000000  0.000000000  0.00000000000  0.000000000000000
%i    0    0    0    0      0      0      0      0         0
%i    0    0    0    0      0      0      0      0         0
/*      NGA, ST. LOUIS,MO.                                  
/*   EPHEMERIS COMPUTED FROM  3 DAYS OF DATA                
/* CCCCCCCCCCCCCCCCCCCCCCCCCCCCCCCCCCCCCCCCCCCCCCCCCCCCCCCCC
/* CCCCCCCCCCCCCCCCCCCCCCCCCCCCCCCCCCCCCCCCCCCCCCCCCCCCCCCCC
*  2010  1 24  2  0   .00000000                                                 
P  1  17699.965261 -12570.278314  15124.747612    -82.255589                    
V  1  -6546.733638  18408.263752  22922.120233      -.034074                    
P  2  13365.001978  23026.358980   3020.936004    218.898649                    
V  2  -4731.607961  -1418.426440  30692.745727       .042287                    
P  3 -14055.341076 -12162.592728 -19439.977381    506.162333                    
V  3  23273.223999  -5866.132608 -13053.697329       .051639                    
P  4   2178.360852  22003.082795  14277.861004   -472.962417                    
V  4 -12781.573778 -13848.184138  23385.129975      -.193008                    
P  5   6418.630221  17355.361755 -19040.328309    -13.830640                    
V  5 -11794.699627  21144.343883  15395.045536       .034124                    
P  6  -9858.948898 -13875.405003 -20234.488263    257.674926                    
V  6  25851.442562  -4203.261582  -9514.923666      -.033670                    
P  7 -14318.902853   5390.343927 -21732.006911      3.881149                    
V  7 -15144.218235 -22992.838581   4124.789493      -.005391                    
P  8  -5756.836988  16233.397839 -20074.319568      2.493366                    
V  8 -13732.760533 -21551.596585 -14008.884686       .004954                    
P  9  19339.326536  13449.669033  11647.905340    101.813180                    
V  9   7558.344086  14009.783700 -27157.519959       .023238                    
P 10   1584.015229  21266.869770 -15779.894280    -33.636952                    
V 10 -11107.417884  16636.191201  21891.114430      -.009671                    
P 11 -22400.735889  -6903.400358  12560.436711    -41.383342                    
V 11  -9420.825314 -13983.401086 -23635.086398      -.021039                    
P 12  15846.268658    986.569687  21327.870322   -159.166657                    
V 12 -11422.035195  24412.553043   7510.408426       .048958                    
P 13 -24442.196413   5826.752870  -8753.702178    306.657831                    
V 13 -10904.279948  -1522.779233  29857.083373      -.000096                    
P 14  10453.522106 -13694.501654  20317.575020      3.601746                    
V 14  25468.320444    160.349821 -13200.499235       .044242                    
P 15  21058.557942   8149.458037 -14044.201695   -311.581289                    
V 15 -17589.432056   3757.791760 -24044.552287       .024107                    
P 16   -305.223642 -21731.484520 -15038.886358    -33.820782                    
V 16  10649.554148 -16177.127542  23336.612971      -.040775                    
P 17  -8709.460006  14698.981164  20364.662410    123.771964                    
V 17 -25754.692363    173.251255 -11390.184513       .032634                    
P 18  17217.228383 -17068.873188 -10147.144483     44.002284                    
V 18  -3127.650680  13495.646719 -27696.275224       .026860                    
P 19 -21850.934579  -8888.036803 -12450.757061    -11.376413                    
V 19  15778.333060  -2100.797524 -25832.012000      -.022328                    
P 20 -17403.478103   3724.885689  19564.201692     62.722176                    
V 20   9057.923549 -23591.743913  12520.068914      -.007606                    
P 21  12100.079604 -10048.888316 -21068.972572    -35.972641                    
V 21  15586.895265  22796.435291  -2518.414326      -.024498                    
P 22  11566.697013 -23841.767924   1149.961388    180.853941                    
V 22   3817.521091    558.385352 -31216.172454      -.007961                    
P 23 -26595.457715   -119.994437   2616.479161    381.653114                    
V 23   3172.619674  -2488.069288  31512.240778      -.008627                    
P 24  17879.431906   2918.627109 -19266.028623    256.359416                    
V 24  11444.893348  22000.007071  14140.500424       .031430                    
P 25 -17607.538975   -536.537359 -19470.161343     85.550750                    
V 25 -15171.886299 -20543.339576  14231.105117       .075884                    
P 26  20066.773545  -9546.952522  14345.753571    -12.143125                    
V 26  18943.221745   1097.870273 -24385.897942      -.031625                    
P 27  19993.057165  14450.674417  10662.887617    119.842882                    
V 27   6106.636822  11008.278771 -28130.790704       .034022                    
P 28 -12886.534526  22988.579670   -925.767458    -23.203178                    
V 28  -1689.438205  -2866.799202 -32117.599984       .005356                    
P 29  25772.861888  -4279.649619  -4597.780343     92.356952                    
V 29   6067.519453   2560.716967  31051.631566       .031504                    
P 30  17416.274342 -10757.549715  16507.664077    213.290450                    
V 30  -6762.277290  20760.621608  20248.546358       .032734                    
P 31  -4423.703803 -22630.706187  13251.763097    -54.232698                    
V 31  10829.350156  12608.139503  25723.165594       .015004                    
P 32 -13594.697665  -7218.641139  21997.381061    110.488162                    
V 32  13713.783184 -23358.347818   1138.301209      -.080897                    
EOF
